OBJECT_NAME,OBJECT_ID,EPOCH,MEAN_MOTION,ECCENTRICITY,INCLINATION,RA_OF_ASC_NODE,ARG_OF_PERICENTER,MEAN_ANOMALY,EPHEMERIS_TYPE,CLASSIFICATION_TYPE,NORAD_CAT_ID,ELEMENT_SET_NO,REV_AT_EPOCH,BSTAR,MEAN_MOTION_DOT,MEAN_MOTION_DDOT
STARLINK-37724,2026-115H,2026-06-11T18:51:49.884192,15.80889201,.0001335,97.2836,179.9685,80.3735,279.7684,0,U,69218,999,383,.87459E-3,.171283E-2,0
STARLINK-37758,2026-115J,2026-06-11T18:47:12.484896,15.80885776,.0001132,97.2832,179.9736,83.2112,276.9285,0,U,69219,999,383,.82556E-3,.161464E-2,0
STARLINK-37201,2026-115K,2026-06-11T18:48:59.348736,15.80869949,.0001481,97.2832,179.9710,82.9321,277.2116,0,U,69220,999,383,.62208E-3,.12098E-2,0
STARLINK-37728,2026-115L,2026-06-11T20:16:44.530176,15.80352669,.0001165,97.2829,180.0422,94.3689,265.7712,0,U,69221,999,384,-.25508E-2,-.454417E-2,0
STARLINK-37760,2026-115M,2026-06-11T20:00:01.999008,15.80805349,.0001379,97.2833,180.0243,80.5303,198.3709,0,U,69222,999,383,.35494E-4,.6659E-4,0
STARLINK-37759,2026-115N,2026-06-11T20:00:01.999008,15.69562253,.0001556,97.2845,180.0135,90.3322,166.9616,0,U,69223,999,383,-.24651E-1,-.2533175E-1,0
STARLINK-37725,2026-115P,2026-06-11T14:11:40.066944,15.80884742,.0001894,97.2831,179.7747,133.8819,226.2605,0,U,69224,999,380,.78472E-3,.153323E-2,0
STARLINK-37770,2026-115Q,2026-06-11T20:17:18.220128,15.80843514,.0001275,97.2832,180.0410,108.7046,251.4361,0,U,69225,999,384,.78809E-3,.153695E-2,0
STARLINK-37736,2026-115R,2026-06-11T14:11:40.524000,15.80887096,.0001746,97.2827,179.7746,82.1033,278.0433,0,U,69226,999,380,.1086E-2,.213756E-2,0
STARLINK-37737,2026-115S,2026-06-11T20:13:24.737088,15.80907021,.0001176,97.2829,180.0443,65.4831,294.6560,0,U,69227,999,384,.11023E-2,.21725E-2,0
STARLINK-37618,2026-115T,2026-06-11T20:00:01.999008,15.68394548,.0001513,97.2845,180.0205,90.1142,183.4332,0,U,69228,999,383,-.25844E-1,-.2530695E-1,0
STARLINK-37679,2026-115U,2026-06-11T20:00:01.999008,15.68942594,.0001021,97.2846,180.0210,137.0808,138.7969,0,U,69229,999,383,-.24201E-1,-.2436781E-1,0
STARLINK-37746,2026-115V,2026-06-11T20:00:01.999008,15.67804820,.0001737,97.2845,180.0127,93.5959,159.6389,0,U,69230,999,383,-.26642E-1,-.2544475E-1,0
STARLINK-37557,2026-115W,2026-06-11T20:00:01.999008,15.60230442,.0002085,97.2841,179.9884,77.8483,109.6877,0,U,69231,999,383,-.34514E-1,-.2453624E-1,0
STARLINK-37745,2026-115X,2026-06-11T20:02:04.515072,15.80851976,.0000827,97.2825,180.0558,122.3071,237.8277,0,U,69232,999,384,.87874E-3,.171814E-2,0
STARLINK-37739,2026-115Y,2026-06-11T20:00:01.999008,15.66705120,.0001432,97.2844,180.0041,82.7945,151.1931,0,U,69233,999,383,-.13381E-1,-.1256967E-1,0
STARLINK-37755,2026-115Z,2026-06-11T19:05:34.598112,15.75187249,.0001773,97.2845,179.9567,101.5400,258.6064,0,U,69234,999,383,.10913E-2,.165826E-2,0
TJS-24,2026-116A,2026-06-11T21:27:21.663072,1.00269651,.0000514,0.0169,257.2049,164.3314,250.8327,0,U,69235,999,17,0,-.215E-5,0
STARLINK-37665,2026-117A,2026-06-11T20:00:01.999008,15.82014425,.0000925,53.1588,270.4982,58.2497,61.4013,0,U,69238,999,331,-.28359E-3,-.59322E-3,0
STARLINK-37558,2026-117B,2026-06-11T20:00:01.999008,15.82017748,.0001075,53.1586,270.4873,72.0560,53.0097,0,U,69239,999,331,-.30325E-3,-.63369E-3,0
STARLINK-37680,2026-117C,2026-06-11T20:00:01.999008,15.82001230,.0000903,53.1588,270.4700,85.3266,47.9567,0,U,69240,999,330,-.21471E-3,-.45132E-3,0
STARLINK-37742,2026-117D,2026-06-11T20:00:01.999008,15.82034559,.0000942,53.1588,270.4494,62.9729,80.4625,0,U,69241,999,331,-.45539E-3,-.94539E-3,0
STARLINK-37718,2026-117E,2026-06-11T20:00:01.999008,15.82037446,.0000945,53.1588,270.4344,76.8596,73.6040,0,U,69242,999,330,-.48359E-3,-.100297E-2,0
STARLINK-37735,2026-117F,2026-06-11T20:00:01.999008,15.82038704,.000097,53.1587,270.4332,117.9957,33.0762,0,U,69243,999,331,-.48244E-3,-.100069E-2,0
STARLINK-37757,2026-117G,2026-06-11T20:00:01.999008,15.82043791,.0000731,53.1587,270.4051,73.8648,90.8556,0,U,69244,999,331,-.57552E-3,-.119007E-2,0
STARLINK-37767,2026-117H,2026-06-11T20:00:01.999008,15.82038541,.0001386,53.1582,270.3543,93.9949,95.0372,0,U,69245,999,331,-.52386E-3,-.108501E-2,0
STARLINK-35759,2026-117J,2026-06-11T20:00:01.999008,15.82057671,.0001117,53.1582,270.3462,56.5792,136.3454,0,U,69246,999,336,-.68385E-3,-.141019E-2,0
STARLINK-37238,2026-117K,2026-06-11T20:00:01.999008,15.82039448,.0001094,53.1582,270.2933,59.8894,158.3500,0,U,69247,999,331,-.53876E-3,-.111529E-2,0
STARLINK-37412,2026-117L,2026-06-11T20:00:01.999008,15.82051560,.0000887,53.1582,270.2538,76.5894,160.8460,0,U,69248,999,338,-.63625E-3,-.131355E-2,0
