STARLINK-37724          
1 69218U 26115H   26162.78599403  .00171283  00000+0  87459-3 0  9990
2 69218  97.2836 179.9685 0001335  80.3735 279.7684 15.80889201  3835
STARLINK-37758          
1 69219U 26115J   26162.78278339  .00161464  00000+0  82556-3 0  9996
2 69219  97.2832 179.9736 0001132  83.2112 276.9285 15.80885776  3834
STARLINK-37201          
1 69220U 26115K   26162.78402024  .00120980  00000+0  62208-3 0  9998
2 69220  97.2832 179.9710 0001481  82.9321 277.2116 15.80869949  3834
STARLINK-37728          
1 69221U 26115L   26162.84495984 -.00454417  00000+0 -25508-2 0  9991
2 69221  97.2829 180.0422 0001165  94.3689 265.7712 15.80352669  3848
STARLINK-37760          
1 69222U 26115M   26162.83335647  .00006659  00000+0  35494-4 0  9996
2 69222  97.2833 180.0243 0001379  80.5303 198.3709 15.80805349  3836
STARLINK-37759          
1 69223U 26115N   26162.83335647 -.02533175  00000+0 -24651-1 0  9999
2 69223  97.2845 180.0135 0001556  90.3322 166.9616 15.69562253  3836
STARLINK-37725          
1 69224U 26115P   26162.59143596  .00153323  00000+0  78472-3 0  9994
2 69224  97.2831 179.7747 0001894 133.8819 226.2605 15.80884742  3803
STARLINK-37770          
1 69225U 26115Q   26162.84534977  .00153695  00000+0  78809-3 0  9996
2 69225  97.2832 180.0410 0001275 108.7046 251.4361 15.80843514  3848
STARLINK-37736          
1 69226U 26115R   26162.59144125  .00213756  00000+0  10860-2 0  9998
2 69226  97.2827 179.7746 0001746  82.1033 278.0433 15.80887096  3808
STARLINK-37737          
1 69227U 26115S   26162.84264742  .00217250  00000+0  11023-2 0  9990
2 69227  97.2829 180.0443 0001176  65.4831 294.6560 15.80907021  3847
STARLINK-37618          
1 69228U 26115T   26162.83335647 -.02530695  00000+0 -25844-1 0  9993
2 69228  97.2845 180.0205 0001513  90.1142 183.4332 15.68394548  3838
STARLINK-37679          
1 69229U 26115U   26162.83335647 -.02436781  00000+0 -24201-1 0  9991
2 69229  97.2846 180.0210 0001021 137.0808 138.7969 15.68942594  3839
STARLINK-37746          
1 69230U 26115V   26162.83335647 -.02544475  00000+0 -26642-1 0  9994
2 69230  97.2845 180.0127 0001737  93.5959 159.6389 15.67804820  3830
STARLINK-37557          
1 69231U 26115W   26162.83335647 -.02453624  00000+0 -34514-1 0  9997
2 69231  97.2841 179.9884 0002085  77.8483 109.6877 15.60230442  3831
STARLINK-37745          
1 69232U 26115X   26162.83477448  .00171814  00000+0  87874-3 0  9997
2 69232  97.2825 180.0558 0000827 122.3071 237.8277 15.80851976  3848
STARLINK-37739          
1 69233U 26115Y   26162.83335647 -.01256967  00000+0 -13381-1 0  9998
2 69233  97.2844 180.0041 0001432  82.7945 151.1931 15.66705120  3836
STARLINK-37755          
1 69234U 26115Z   26162.79553933  .00165826  00000+0  10913-2 0  9993
2 69234  97.2845 179.9567 0001773 101.5400 258.6064 15.75187249  3838
TJS-24                  
1 69235U 26116A   26162.89400073 -.00000215  00000+0  00000+0 0  9996
2 69235   0.0169 257.2049 0000514 164.3314 250.8327  1.00269651   179
STARLINK-37665          
1 69238U 26117A   26162.83335647 -.00059322  00000+0 -28359-3 0  9993
2 69238  53.1588 270.4982 0000925  58.2497  61.4013 15.82014425  3317
STARLINK-37558          
1 69239U 26117B   26162.83335647 -.00063369  00000+0 -30325-3 0  9996
2 69239  53.1586 270.4873 0001075  72.0560  53.0097 15.82017748  3317
STARLINK-37680          
1 69240U 26117C   26162.83335647 -.00045132  00000+0 -21471-3 0  9998
2 69240  53.1588 270.4700 0000903  85.3266  47.9567 15.82001230  3301
STARLINK-37742          
1 69241U 26117D   26162.83335647 -.00094539  00000+0 -45539-3 0  9995
2 69241  53.1588 270.4494 0000942  62.9729  80.4625 15.82034559  3318
STARLINK-37718          
1 69242U 26117E   26162.83335647 -.00100297  00000+0 -48359-3 0  9998
2 69242  53.1588 270.4344 0000945  76.8596  73.6040 15.82037446  3304
STARLINK-37735          
1 69243U 26117F   26162.83335647 -.00100069  00000+0 -48244-3 0  9999
2 69243  53.1587 270.4332 0000970 117.9957  33.0762 15.82038704  3317
STARLINK-37757          
1 69244U 26117G   26162.83335647 -.00119007  00000+0 -57552-3 0  9994
2 69244  53.1587 270.4051 0000731  73.8648  90.8556 15.82043791  3312
STARLINK-37767          
1 69245U 26117H   26162.83335647 -.00108501  00000+0 -52386-3 0  9992
2 69245  53.1582 270.3543 0001386  93.9949  95.0372 15.82038541  3317
STARLINK-35759          
1 69246U 26117J   26162.83335647 -.00141019  00000+0 -68385-3 0  9990
2 69246  53.1582 270.3462 0001117  56.5792 136.3454 15.82057671  3361
STARLINK-37238          
1 69247U 26117K   26162.83335647 -.00111529  00000+0 -53876-3 0  9993
2 69247  53.1582 270.2933 0001094  59.8894 158.3500 15.82039448  3310
STARLINK-37412          
1 69248U 26117L   26162.83335647 -.00131355  00000+0 -63625-3 0  9996
2 69248  53.1582 270.2538 0000887  76.5894 160.8460 15.82051560  3386
